{
    "links": {
        "self": "http://www.neowsapp.com/rest/v1/neo/3873315?api_key=iIulBulltgU6a56xZRHN4H3l9WmuAYTsLGpBGhQ2"
    },
    "id": "3873315",
    "neo_reference_id": "3873315",
    "name": "(2019 SR10)",
    "designation": "2019 SR10",
    "nasa_jpl_url": "http://ssd.jpl.nasa.gov/sbdb.cgi?sstr=3873315",
    "absolute_magnitude_h": 24.9,
    "estimated_diameter": {
        "kilometers": {
            "estimated_diameter_min": 0.0278326768,
            "estimated_diameter_max": 0.0622357573
        },
        "meters": {
            "estimated_diameter_min": 27.8326768072,
            "estimated_diameter_max": 62.2357573367
        },
        "miles": {
            "estimated_diameter_min": 0.0172944182,
            "estimated_diameter_max": 0.0386714948
        },
        "feet": {
            "estimated_diameter_min": 91.3145593761,
            "estimated_diameter_max": 204.1855621004
        }
    },
    "is_potentially_hazardous_asteroid": false,
    "close_approach_data": [
        {
            "close_approach_date": "2019-09-18",
            "close_approach_date_full": "2019-Sep-18 05:03",
            "epoch_date_close_approach": 1568782980000,
            "relative_velocity": {
                "kilometers_per_second": "6.8477665794",
                "kilometers_per_hour": "24651.959685917",
                "miles_per_hour": "15317.7690615077"
            },
            "miss_distance": {
                "astronomical": "0.0618631474",
                "lunar": "24.0647643386",
                "kilometers": "9254595.082536038",
                "miles": "5750538.7282638044"
            },
            "orbiting_body": "Earth"
        }
    ],
    "orbital_data": {
        "orbit_id": "3",
        "orbit_determination_date": "2019-10-23 05:55:48",
        "first_observation_date": "2019-09-30",
        "last_observation_date": "2019-10-22",
        "data_arc_in_days": 22,
        "observations_used": 18,
        "orbit_uncertainty": "7",
        "minimum_orbit_intersection": ".0621313",
        "jupiter_tisserand_invariant": "3.175",
        "epoch_osculation": "2459000.5",
        "eccentricity": ".5851087504528422",
        "semi_major_axis": "2.550603739622976",
        "inclination": "1.971752947927015",
        "ascending_node_longitude": "54.08918811096112",
        "orbital_period": "1487.862900988501",
        "perihelion_distance": "1.05822317263183",
        "perihelion_argument": "303.3706486894037",
        "aphelion_distance": "4.042984306614122",
        "perihelion_time": "2458746.880730461128",
        "mean_anomaly": "61.3651546613162",
        "mean_motion": ".241957776997346",
        "equinox": "J2000",
        "orbit_class": {
            "orbit_class_type": "AMO",
            "orbit_class_description": "Near-Earth asteroid orbits similar to that of 1221 Amor",
            "orbit_class_range": "1.017 AU < q (perihelion) < 1.3 AU"
        }
    },
    "is_sentry_object": false
}